{
  "type": "FeatureCollection",
  "features": [
    {
      "type": "Feature",
      "properties": {
        "id": "LM:0",
        "service": "LM",
        "setor": "MG10800LM0001",
        "name": "Aos Pracinhas a Homenagem e a Gratidao do Parque Novo Mundo",
        "centroid": [
          -23.51754,
          -46.56791
        ],
        "fillColor": "#87ceeb",
        "geometry": "point",
        "serviceDisplay": "Limpeza de Monumentos",
        "subprefeitura": "Vila Maria / Vila Guilherme",
        "turno": "Diurno",
        "frequencia": "Quadrimestral",
        "cronograma": "14/01/2026;13/05/2026;10/09/2026;13/01/2027",
        "logradouro": "Pc Novo Mundo",
        "service_type": "Limpeza de Monumentos",
        "service_icon": "community"
      },
      "geometry": {
        "type": "Point",
        "coordinates": [
          -46.56791,
          -23.51754
        ]
      },
      "id": "LM:0"
    },
    {
      "type": "Feature",
      "properties": {
        "id": "LM:1",
        "service": "LM",
        "setor": "MG10800LM0002",
        "name": "Monumento à Legalidade",
        "centroid": [
          -23.52746,
          -46.59227
        ],
        "fillColor": "#87ceeb",
        "geometry": "point",
        "serviceDisplay": "Limpeza de Monumentos",
        "subprefeitura": "Vila Maria / Vila Guilherme",
        "turno": "Diurno",
        "frequencia": "Quadrimestral",
        "cronograma": "15/01/2026;14/05/2026;11/09/2026;14/01/2027",
        "logradouro": "Av Morvan Dias de Figueiredo",
        "service_type": "Limpeza de Monumentos",
        "service_icon": "community"
      },
      "geometry": {
        "type": "Point",
        "coordinates": [
          -46.59227,
          -23.52746
        ]
      },
      "id": "LM:1"
    },
    {
      "type": "Feature",
      "properties": {
        "id": "LM:2",
        "service": "LM",
        "setor": "MG10800LM0003",
        "name": "Homenagem ao Cao Salomao",
        "centroid": [
          -23.5071,
          -46.6007
        ],
        "fillColor": "#87ceeb",
        "geometry": "point",
        "serviceDisplay": "Limpeza de Monumentos",
        "subprefeitura": "Vila Maria / Vila Guilherme",
        "turno": "Diurno",
        "frequencia": "Quadrimestral",
        "cronograma": "16/01/2026;15/05/2026;12/09/2026;15/01/2027",
        "logradouro": "R Maria Candida",
        "service_type": "Limpeza de Monumentos",
        "service_icon": "community"
      },
      "geometry": {
        "type": "Point",
        "coordinates": [
          -46.6007,
          -23.5071
        ]
      },
      "id": "LM:2"
    },
    {
      "type": "Feature",
      "properties": {
        "id": "LM:3",
        "service": "LM",
        "setor": "JT10800LM0001",
        "name": "Marechal do Ar Alberto Santos Dumont",
        "centroid": [
          -23.47671,
          -46.56538
        ],
        "fillColor": "#4b0082",
        "geometry": "point",
        "serviceDisplay": "Limpeza de Monumentos",
        "subprefeitura": "Jaçanã / Tucuruvi",
        "turno": "Diurno",
        "frequencia": "Quadrimestral",
        "cronograma": "12/01/2026;11/05/2026;08/09/2027;11/01/2027",
        "logradouro": "Av Roland Garros",
        "service_type": "Limpeza de Monumentos",
        "service_icon": "community"
      },
      "geometry": {
        "type": "Point",
        "coordinates": [
          -46.56538,
          -23.47671
        ]
      },
      "id": "LM:3"
    },
    {
      "type": "Feature",
      "properties": {
        "id": "LM:4",
        "service": "LM",
        "setor": "JT10800LM0002",
        "name": "Marco Rodoviário",
        "centroid": [
          -23.42044,
          -46.62121
        ],
        "fillColor": "#4b0082",
        "geometry": "point",
        "serviceDisplay": "Limpeza de Monumentos",
        "subprefeitura": "Jaçanã / Tucuruvi",
        "turno": "Diurno",
        "frequencia": "Quadrimestral",
        "cronograma": "13/01/2026;12/05/2026;09/09/2026;12/01/2027",
        "logradouro": "Av Sen Jose Ermirio de Moraes",
        "service_type": "Limpeza de Monumentos",
        "service_icon": "community"
      },
      "geometry": {
        "type": "Point",
        "coordinates": [
          -46.62121,
          -23.42044
        ]
      },
      "id": "LM:4"
    },
    {
      "type": "Feature",
      "properties": {
        "id": "LM:5",
        "service": "LM",
        "setor": "ST10800LM0001",
        "name": "Menorah",
        "centroid": [
          -23.51255,
          -46.62166
        ],
        "fillColor": "#ffd700",
        "geometry": "point",
        "serviceDisplay": "Limpeza de Monumentos",
        "subprefeitura": "Santana / Tucuruvi",
        "turno": "Diurno",
        "frequencia": "Quadrimestral",
        "cronograma": "06/01/2026;05/05/2026;01/09/2026;05/01/2027",
        "logradouro": "Av Moyses Roysen",
        "service_type": "Limpeza de Monumentos",
        "service_icon": "community"
      },
      "geometry": {
        "type": "Point",
        "coordinates": [
          -46.62166,
          -23.51255
        ]
      },
      "id": "LM:5"
    },
    {
      "type": "Feature",
      "properties": {
        "id": "LM:6",
        "service": "LM",
        "setor": "ST10800LM0002",
        "name": "Vitoria",
        "centroid": [
          -23.51631,
          -46.62995
        ],
        "fillColor": "#ffd700",
        "geometry": "point",
        "serviceDisplay": "Limpeza de Monumentos",
        "subprefeitura": "Santana / Tucuruvi",
        "turno": "Diurno",
        "frequencia": "Quadrimestral",
        "cronograma": "07/01/2026;06/05/2026;02/09/2026;06/01/2027",
        "logradouro": "Av Sto Dumont",
        "service_type": "Limpeza de Monumentos",
        "service_icon": "community"
      },
      "geometry": {
        "type": "Point",
        "coordinates": [
          -46.62995,
          -23.51631
        ]
      },
      "id": "LM:6"
    },
    {
      "type": "Feature",
      "properties": {
        "id": "LM:7",
        "service": "LM",
        "setor": "ST10800LM0003",
        "name": "14 Bis",
        "centroid": [
          -23.51449,
          -46.62943
        ],
        "fillColor": "#ffd700",
        "geometry": "point",
        "serviceDisplay": "Limpeza de Monumentos",
        "subprefeitura": "Santana / Tucuruvi",
        "turno": "Diurno",
        "frequencia": "Quadrimestral",
        "cronograma": "08/01/2026;07/05/2026;03/09/2026;07/01/2027",
        "logradouro": "Pc Campo de Bagatelle",
        "service_type": "Limpeza de Monumentos",
        "service_icon": "community"
      },
      "geometry": {
        "type": "Point",
        "coordinates": [
          -46.62943,
          -23.51449
        ]
      },
      "id": "LM:7"
    },
    {
      "type": "Feature",
      "properties": {
        "id": "LM:8",
        "service": "LM",
        "setor": "ST10800LM0004",
        "name": "Monumento aos Herois da FEB",
        "centroid": [
          -23.5056,
          -46.62815
        ],
        "fillColor": "#ffd700",
        "geometry": "point",
        "serviceDisplay": "Limpeza de Monumentos",
        "subprefeitura": "Santana / Tucuruvi",
        "turno": "Diurno",
        "frequencia": "Quadrimestral",
        "cronograma": "09/01/2026;08/05/2026;04/09/2026;08/01/2027",
        "logradouro": "Pc Herois da Forca Expedicionaria Brasileira",
        "service_type": "Limpeza de Monumentos",
        "service_icon": "community"
      },
      "geometry": {
        "type": "Point",
        "coordinates": [
          -46.62815,
          -23.5056
        ]
      },
      "id": "LM:8"
    },
    {
      "type": "Feature",
      "properties": {
        "id": "LM:9",
        "service": "LM",
        "setor": "ST10800LM0005",
        "name": "Nossa Senhora Auxiliadora",
        "centroid": [
          -23.49163,
          -46.63358
        ],
        "fillColor": "#ffd700",
        "geometry": "point",
        "serviceDisplay": "Limpeza de Monumentos",
        "subprefeitura": "Santana / Tucuruvi",
        "turno": "Diurno",
        "frequencia": "Quadrimestral",
        "cronograma": "10/01/2026;09/05/2026;05/09/2026;09/01/2027",
        "logradouro": "R Domingos da Costa Mata",
        "service_type": "Limpeza de Monumentos",
        "service_icon": "community"
      },
      "geometry": {
        "type": "Point",
        "coordinates": [
          -46.63358,
          -23.49163
        ]
      },
      "id": "LM:9"
    },
    {
      "type": "Feature",
      "properties": {
        "id": "LM:10",
        "service": "LM",
        "setor": "CV10800LM0001",
        "name": "Adhemar Ferreira da Silva",
        "centroid": [
          -23.50828,
          -46.65173
        ],
        "fillColor": "#adff2f",
        "geometry": "point",
        "serviceDisplay": "Limpeza de Monumentos",
        "subprefeitura": "Casa Verde / Cachoeirinha",
        "turno": "Diurno",
        "frequencia": "Quadrimestral",
        "cronograma": "05/01/2026;04/05/2026;31/08/2026;04/01/2027",
        "logradouro": "R Des Euclides da Silveira",
        "service_type": "Limpeza de Monumentos",
        "service_icon": "community"
      },
      "geometry": {
        "type": "Point",
        "coordinates": [
          -46.65173,
          -23.50828
        ]
      },
      "id": "LM:10"
    }
  ]
}