<?xml version="1.0" encoding="UTF-8"?>
<kml xmlns="http://www.opengis.net/kml/2.2">
<Document>
<name>GeoPlano — Asseio (CA)</name>
<open>1</open>
<Style id="s-CA-0">
<LineStyle><color>ff2fffad</color><width>3.0</width></LineStyle>
<PolyStyle><color>ff2fffad</color></PolyStyle>
<IconStyle><color>ff2fffad</color><scale>0.55</scale>
<Icon><href>http://maps.google.com/mapfiles/kml/shapes/placemark_circle.png</href></Icon>
</IconStyle>
<LabelStyle><scale>0.65</scale></LabelStyle>
</Style><Placemark><name>Av Inajar de Souza</name><styleUrl>#s-CA-0</styleUrl><description><![CDATA[<table style="border-collapse:collapse;width:100%;font-family:'Helvetica Neue',Helvetica,Arial,sans-serif;font-size:11px;border:1px solid #e5e7eb;border-radius:8px;overflow:hidden;"><tr><th colspan="2" style="padding:5px 8px;background:#1f6feb;color:#fff;text-align:left;font-size:12px;font-weight:600;">Av Inajar de Souza</th></tr><tr><th style="padding:3px 5px;text-align:left;background:#f3f4f6;border-bottom:1px solid #d1d5db;width:30%;font-size:11px;font-weight:600;color:#1f2937;">Serviço</th><td style="padding:3px 5px;border-bottom:1px solid #e5e7eb;font-size:11px;color:#111827;">Asseio (CA)</td></tr><tr><th style="padding:3px 5px;text-align:left;background:#f3f4f6;border-bottom:1px solid #d1d5db;width:30%;font-size:11px;font-weight:600;color:#1f2937;">Setor</th><td style="padding:3px 5px;border-bottom:1px solid #e5e7eb;font-size:11px;color:#111827;">CV10302CA0001</td></tr><tr><th style="padding:3px 5px;text-align:left;background:#f3f4f6;border-bottom:1px solid #d1d5db;width:30%;font-size:11px;font-weight:600;color:#1f2937;">Tipo de Serviço</th><td style="padding:3px 5px;border-bottom:1px solid #e5e7eb;font-size:11px;color:#111827;">Asseio (CA)</td></tr><tr><th style="padding:3px 5px;text-align:left;background:#f3f4f6;border-bottom:1px solid #d1d5db;width:30%;font-size:11px;font-weight:600;color:#1f2937;">Nome</th><td style="padding:3px 5px;border-bottom:1px solid #e5e7eb;font-size:11px;color:#111827;">Av Inajar de Souza</td></tr><tr><th style="padding:3px 5px;text-align:left;background:#f3f4f6;border-bottom:1px solid #d1d5db;width:30%;font-size:11px;font-weight:600;color:#1f2937;">Logradouro</th><td style="padding:3px 5px;border-bottom:1px solid #e5e7eb;font-size:11px;color:#111827;">Av Inajar de Souza</td></tr><tr><th style="padding:3px 5px;text-align:left;background:#f3f4f6;border-bottom:1px solid #d1d5db;width:30%;font-size:11px;font-weight:600;color:#1f2937;">Subprefeitura</th><td style="padding:3px 5px;border-bottom:1px solid #e5e7eb;font-size:11px;color:#111827;">Casa Verde / Cachoeirinha</td></tr><tr><th style="padding:3px 5px;text-align:left;background:#f3f4f6;border-bottom:1px solid #d1d5db;width:30%;font-size:11px;font-weight:600;color:#1f2937;">Turno</th><td style="padding:3px 5px;border-bottom:1px solid #e5e7eb;font-size:11px;color:#111827;">Diurno</td></tr><tr><th style="padding:3px 5px;text-align:left;background:#f3f4f6;border-bottom:1px solid #d1d5db;width:30%;font-size:11px;font-weight:600;color:#1f2937;">Frequência</th><td style="padding:3px 5px;border-bottom:1px solid #e5e7eb;font-size:11px;color:#111827;">Bissemanal de Segunda/Quinta</td></tr><tr><th style="padding:3px 5px;text-align:left;background:#f3f4f6;border-bottom:1px solid #d1d5db;width:30%;font-size:11px;font-weight:600;color:#1f2937;">Cronograma</th><td style="padding:3px 5px;border-bottom:1px solid #e5e7eb;font-size:11px;color:#111827;">—</td></tr></table>]]></description><LineString><coordinates>-46.6715100,-23.4697200,0 -46.6712400,-23.4683400,0 -46.6712200,-23.4679400,0 -46.6712600,-23.4675500,0 -46.6713300,-23.4671800,0 -46.6714400,-23.4668300,0 -46.6717600,-23.4663000,0 -46.6726400,-23.4651600,0 -46.6731300,-23.4644700,0 -46.6733400,-23.4640600,0 -46.6736600,-23.4631000,0 -46.6737100,-23.4626600,0 -46.6738200,-23.4620500,0 -46.6739300,-23.4612600,0 -46.6740500,-23.4607900,0 -46.6741800,-23.4605200,0 -46.6743300,-23.4604500,0 -46.6744700,-23.4603500,0 -46.6757700,-23.4588400,0 -46.6759800,-23.4585100,0 -46.6760600,-23.4583300,0 -46.6761400,-23.4580100,0 -46.6761600,-23.4576100,0 -46.6761500,-23.4574200,0 -46.6760600,-23.4569900,0 -46.6761700,-23.4564500,0 -46.6762100,-23.4560500,0 -46.6761900,-23.4557500,0 -46.6760400,-23.4552400,0 -46.6751800,-23.4529700,0 -46.6751500,-23.4527800,0 -46.6758100,-23.4517900,0 -46.6759700,-23.4515900,0 -46.6762300,-23.4514000,0 -46.6763400,-23.4512700,0 -46.6764600,-23.4509800,0 -46.6764800,-23.4508200,0 -46.6764700,-23.4506400,0 -46.6763500,-23.4503500,0 -46.6762500,-23.4502200,0 -46.6761300,-23.4501100,0 -46.6758600,-23.4499600,0 -46.6755900,-23.4497800,0 -46.6754200,-23.4497300,0 -46.6752600,-23.4497000,0 -46.6750900,-23.4497000,0 -46.6749200,-23.4497300,0 -46.6747600,-23.4497800,0 -46.6746100,-23.4498600,0 -46.6744800,-23.4499600,0 -46.6743000,-23.4501700,0 -46.6741300,-23.4505100,0 -46.6739300,-23.4508500,0 -46.6730800,-23.4520900,0 -46.6729300,-23.4526300,0 -46.6729300,-23.4527900,0 -46.6730100,-23.4532100,0 -46.6740600,-23.4559700,0 -46.6740600,-23.4561100,0 -46.6739900,-23.4563700,0 -46.6739200,-23.4567500,0 -46.6739100,-23.4569000,0 -46.6739400,-23.4572700,0 -46.6740200,-23.4576400,0 -46.6739800,-23.4577500,0 -46.6731500,-23.4587000,0 -46.6728900,-23.4589300,0 -46.6725600,-23.4590100,0 -46.6724200,-23.4590900,0 -46.6721800,-23.4593200,0 -46.6720900,-23.4594600,0 -46.6719700,-23.4598200,0 -46.6718400,-23.4605200,0 -46.6715700,-23.4624100,0 -46.6715600,-23.4626500,0 -46.6714200,-23.4632000,0 -46.6709900,-23.4638900,0 -46.6700500,-23.4651300,0 -46.6697900,-23.4655100,0 -46.6695800,-23.4658800,0 -46.6693800,-23.4663000,0 -46.6692100,-23.4668800,0 -46.6691100,-23.4673500,0 -46.6690900,-23.4679300,0 -46.6691000,-23.4684100,0 -46.6691700,-23.4689500,0 -46.6693800,-23.4699700,0 -46.6694000,-23.4705000,0 -46.6693600,-23.4711000,0 -46.6690700,-23.4733300,0 -46.6690600,-23.4736000,0 -46.6690300,-23.4737400,0 -46.6690300,-23.4741500,0 -46.6691100,-23.4746800,0 -46.6692200,-23.4750700,0 -46.6693500,-23.4753300,0 -46.6696000,-23.4756900,0 -46.6697100,-23.4758100,0 -46.6699800,-23.4760300,0 -46.6702600,-23.4762100,0 -46.6710100,-23.4765900,0 -46.6712400,-23.4767400,0 -46.6714500,-23.4769500,0 -46.6716400,-23.4774000,0 -46.6721200,-23.4789800,0 -46.6723700,-23.4799100,0 -46.6724200,-23.4802700,0 -46.6724600,-23.4804200,0 -46.6727000,-23.4810100,0 -46.6729000,-23.4813400,0 -46.6731200,-23.4815900,0 -46.6735300,-23.4819300,0 -46.6739800,-23.4822000,0 -46.6759100,-23.4831300,0 -46.6777100,-23.4839700,0 -46.6781800,-23.4842600,0 -46.6787600,-23.4848100,0 -46.6790200,-23.4851100,0 -46.6809200,-23.4871100,0 -46.6816900,-23.4879500,0 -46.6829000,-23.4892100,0 -46.6835000,-23.4898700,0 -46.6838000,-23.4903100,0 -46.6839200,-23.4905500,0 -46.6841100,-23.4910600,0 -46.6841900,-23.4914100,0 -46.6842100,-23.4917000,0 -46.6841300,-23.4923200,0 -46.6834200,-23.4956600,0 -46.6833700,-23.4960100,0 -46.6833400,-23.4964900,0 -46.6833700,-23.4969200,0 -46.6834300,-23.4973100,0 -46.6835600,-23.4977500,0 -46.6837100,-23.4981500,0 -46.6839100,-23.4985300,0 -46.6850700,-23.5002100,0 -46.6871000,-23.5042700,0 -46.6875900,-23.5051200,0 -46.6877500,-23.5054400,0 -46.6878500,-23.5055700,0 -46.6879700,-23.5056800,0 -46.6881100,-23.5057700,0 -46.6884400,-23.5058700,0 -46.6886100,-23.5058800,0 -46.6889400,-23.5058500,0 -46.6891100,-23.5058100,0 -46.6892600,-23.5057500,0 -46.6894100,-23.5056700,0 -46.6896400,-23.5054300,0 -46.6897100,-23.5053000,0 -46.6897600,-23.5051400,0 -46.6897800,-23.5049900,0 -46.6897600,-23.5047500,0 -46.6895400,-23.5041000,0 -46.6887900,-23.5025600,0 -46.6878500,-23.5007300,0 -46.6874100,-23.4997800,0 -46.6869000,-23.4989200,0 -46.6859500,-23.4975600,0 -46.6858300,-23.4973500,0 -46.6856900,-23.4969600,0 -46.6856200,-23.4965200,0 -46.6856500,-23.4961300,0 -46.6863800,-23.4927500,0 -46.6864800,-23.4920900,0 -46.6865100,-23.4916900,0 -46.6864700,-23.4912000,0 -46.6863600,-23.4906400,0 -46.6861500,-23.4900100,0 -46.6858900,-23.4894400,0 -46.6854700,-23.4888100,0 -46.6852300,-23.4884900,0 -46.6849900,-23.4882100,0 -46.6825500,-23.4856300,0 -46.6815900,-23.4846700,0 -46.6810300,-23.4840200,0 -46.6805800,-23.4835700,0 -46.6800600,-23.4830000,0 -46.6797300,-23.4827200,0 -46.6793000,-23.4824100,0 -46.6779500,-23.4817200,0 -46.6770800,-23.4813200,0 -46.6755700,-23.4805800,0 -46.6750100,-23.4803300,0 -46.6747900,-23.4802200,0 -46.6746500,-23.4800900,0 -46.6745700,-23.4799700,0 -46.6744800,-23.4797400,0 -46.6743700,-23.4790700,0 -46.6738100,-23.4771800,0 -46.6734900,-23.4762800,0 -46.6732400,-23.4758500,0 -46.6730200,-23.4755900,0 -46.6727100,-23.4752900,0 -46.6725800,-23.4751900,0 -46.6721500,-23.4749600,0 -46.6717400,-23.4748000,0 -46.6712700,-23.4745400,0 -46.6711800,-23.4744600,0 -46.6711400,-23.4741800,0 -46.6711600,-23.4738600,0 -46.6714600,-23.4715200,0 -46.6715500,-23.4706500,0 -46.6715600,-23.4701600,0 -46.6715100,-23.4697200,0</coordinates></LineString></Placemark>
<Style id="s-CA-1">
<LineStyle><color>ff82004b</color><width>3.0</width></LineStyle>
<PolyStyle><color>ff82004b</color></PolyStyle>
<IconStyle><color>ff82004b</color><scale>0.55</scale>
<Icon><href>http://maps.google.com/mapfiles/kml/shapes/placemark_circle.png</href></Icon>
</IconStyle>
<LabelStyle><scale>0.65</scale></LabelStyle>
</Style><Placemark><name>Ret Retorno</name><styleUrl>#s-CA-1</styleUrl><description><![CDATA[<table style="border-collapse:collapse;width:100%;font-family:'Helvetica Neue',Helvetica,Arial,sans-serif;font-size:11px;border:1px solid #e5e7eb;border-radius:8px;overflow:hidden;"><tr><th colspan="2" style="padding:5px 8px;background:#1f6feb;color:#fff;text-align:left;font-size:12px;font-weight:600;">Ret Retorno</th></tr><tr><th style="padding:3px 5px;text-align:left;background:#f3f4f6;border-bottom:1px solid #d1d5db;width:30%;font-size:11px;font-weight:600;color:#1f2937;">Serviço</th><td style="padding:3px 5px;border-bottom:1px solid #e5e7eb;font-size:11px;color:#111827;">Asseio (CA)</td></tr><tr><th style="padding:3px 5px;text-align:left;background:#f3f4f6;border-bottom:1px solid #d1d5db;width:30%;font-size:11px;font-weight:600;color:#1f2937;">Setor</th><td style="padding:3px 5px;border-bottom:1px solid #e5e7eb;font-size:11px;color:#111827;">JT10407CA0001</td></tr><tr><th style="padding:3px 5px;text-align:left;background:#f3f4f6;border-bottom:1px solid #d1d5db;width:30%;font-size:11px;font-weight:600;color:#1f2937;">Tipo de Serviço</th><td style="padding:3px 5px;border-bottom:1px solid #e5e7eb;font-size:11px;color:#111827;">Asseio (CA)</td></tr><tr><th style="padding:3px 5px;text-align:left;background:#f3f4f6;border-bottom:1px solid #d1d5db;width:30%;font-size:11px;font-weight:600;color:#1f2937;">Nome</th><td style="padding:3px 5px;border-bottom:1px solid #e5e7eb;font-size:11px;color:#111827;">Ret Retorno</td></tr><tr><th style="padding:3px 5px;text-align:left;background:#f3f4f6;border-bottom:1px solid #d1d5db;width:30%;font-size:11px;font-weight:600;color:#1f2937;">Logradouro</th><td style="padding:3px 5px;border-bottom:1px solid #e5e7eb;font-size:11px;color:#111827;">Ret Retorno</td></tr><tr><th style="padding:3px 5px;text-align:left;background:#f3f4f6;border-bottom:1px solid #d1d5db;width:30%;font-size:11px;font-weight:600;color:#1f2937;">Subprefeitura</th><td style="padding:3px 5px;border-bottom:1px solid #e5e7eb;font-size:11px;color:#111827;">Jaçanã / Tucuruvi</td></tr><tr><th style="padding:3px 5px;text-align:left;background:#f3f4f6;border-bottom:1px solid #d1d5db;width:30%;font-size:11px;font-weight:600;color:#1f2937;">Turno</th><td style="padding:3px 5px;border-bottom:1px solid #e5e7eb;font-size:11px;color:#111827;">Diurno</td></tr><tr><th style="padding:3px 5px;text-align:left;background:#f3f4f6;border-bottom:1px solid #d1d5db;width:30%;font-size:11px;font-weight:600;color:#1f2937;">Frequência</th><td style="padding:3px 5px;border-bottom:1px solid #e5e7eb;font-size:11px;color:#111827;">Semanal Sábado</td></tr><tr><th style="padding:3px 5px;text-align:left;background:#f3f4f6;border-bottom:1px solid #d1d5db;width:30%;font-size:11px;font-weight:600;color:#1f2937;">Cronograma</th><td style="padding:3px 5px;border-bottom:1px solid #e5e7eb;font-size:11px;color:#111827;">—</td></tr></table>]]></description><LineString><coordinates>-46.5713900,-23.4586300,0 -46.5712200,-23.4586200,0 -46.5708800,-23.4586800,0 -46.5706600,-23.4587900,0 -46.5704200,-23.4589900,0 -46.5702200,-23.4592400,0 -46.5701600,-23.4593900,0 -46.5701300,-23.4595400,0 -46.5701500,-23.4598600,0 -46.5702100,-23.4600000,0 -46.5704000,-23.4602600,0 -46.5705300,-23.4603600,0 -46.5708400,-23.4605000,0 -46.5710100,-23.4605300,0 -46.5711800,-23.4605300,0 -46.5713800,-23.4605000,0 -46.5715400,-23.4605400,0 -46.5717100,-23.4605500,0 -46.5720500,-23.4604900,0 -46.5723400,-23.4603300,0 -46.5724600,-23.4602200,0 -46.5725600,-23.4600900,0 -46.5726300,-23.4599400,0 -46.5726700,-23.4597900,0 -46.5726700,-23.4594900,0 -46.5726200,-23.4593400,0 -46.5725500,-23.4592000,0 -46.5724500,-23.4590700,0 -46.5721900,-23.4588600,0 -46.5719600,-23.4587600,0 -46.5717000,-23.4586800,0 -46.5713900,-23.4586300,0</coordinates></LineString></Placemark>
<Style id="s-CA-2">
<LineStyle><color>ffebce87</color><width>3.0</width></LineStyle>
<PolyStyle><color>ffebce87</color></PolyStyle>
<IconStyle><color>ffebce87</color><scale>0.55</scale>
<Icon><href>http://maps.google.com/mapfiles/kml/shapes/placemark_circle.png</href></Icon>
</IconStyle>
<LabelStyle><scale>0.65</scale></LabelStyle>
</Style><Placemark><name>Av Ten Amaro Felicissimo da Silveira</name><styleUrl>#s-CA-2</styleUrl><description><![CDATA[<table style="border-collapse:collapse;width:100%;font-family:'Helvetica Neue',Helvetica,Arial,sans-serif;font-size:11px;border:1px solid #e5e7eb;border-radius:8px;overflow:hidden;"><tr><th colspan="2" style="padding:5px 8px;background:#1f6feb;color:#fff;text-align:left;font-size:12px;font-weight:600;">Av Ten Amaro Felicissimo da Silveira</th></tr><tr><th style="padding:3px 5px;text-align:left;background:#f3f4f6;border-bottom:1px solid #d1d5db;width:30%;font-size:11px;font-weight:600;color:#1f2937;">Serviço</th><td style="padding:3px 5px;border-bottom:1px solid #e5e7eb;font-size:11px;color:#111827;">Asseio (CA)</td></tr><tr><th style="padding:3px 5px;text-align:left;background:#f3f4f6;border-bottom:1px solid #d1d5db;width:30%;font-size:11px;font-weight:600;color:#1f2937;">Setor</th><td style="padding:3px 5px;border-bottom:1px solid #e5e7eb;font-size:11px;color:#111827;">MG10404CA0001</td></tr><tr><th style="padding:3px 5px;text-align:left;background:#f3f4f6;border-bottom:1px solid #d1d5db;width:30%;font-size:11px;font-weight:600;color:#1f2937;">Tipo de Serviço</th><td style="padding:3px 5px;border-bottom:1px solid #e5e7eb;font-size:11px;color:#111827;">Asseio (CA)</td></tr><tr><th style="padding:3px 5px;text-align:left;background:#f3f4f6;border-bottom:1px solid #d1d5db;width:30%;font-size:11px;font-weight:600;color:#1f2937;">Nome</th><td style="padding:3px 5px;border-bottom:1px solid #e5e7eb;font-size:11px;color:#111827;">Av Ten Amaro Felicissimo da Silveira</td></tr><tr><th style="padding:3px 5px;text-align:left;background:#f3f4f6;border-bottom:1px solid #d1d5db;width:30%;font-size:11px;font-weight:600;color:#1f2937;">Logradouro</th><td style="padding:3px 5px;border-bottom:1px solid #e5e7eb;font-size:11px;color:#111827;">Av Ten Amaro Felicissimo da Silveira</td></tr><tr><th style="padding:3px 5px;text-align:left;background:#f3f4f6;border-bottom:1px solid #d1d5db;width:30%;font-size:11px;font-weight:600;color:#1f2937;">Subprefeitura</th><td style="padding:3px 5px;border-bottom:1px solid #e5e7eb;font-size:11px;color:#111827;">Vila Maria / Vila Guilherme</td></tr><tr><th style="padding:3px 5px;text-align:left;background:#f3f4f6;border-bottom:1px solid #d1d5db;width:30%;font-size:11px;font-weight:600;color:#1f2937;">Turno</th><td style="padding:3px 5px;border-bottom:1px solid #e5e7eb;font-size:11px;color:#111827;">Diurno</td></tr><tr><th style="padding:3px 5px;text-align:left;background:#f3f4f6;border-bottom:1px solid #d1d5db;width:30%;font-size:11px;font-weight:600;color:#1f2937;">Frequência</th><td style="padding:3px 5px;border-bottom:1px solid #e5e7eb;font-size:11px;color:#111827;">Semanal Quarta</td></tr><tr><th style="padding:3px 5px;text-align:left;background:#f3f4f6;border-bottom:1px solid #d1d5db;width:30%;font-size:11px;font-weight:600;color:#1f2937;">Cronograma</th><td style="padding:3px 5px;border-bottom:1px solid #e5e7eb;font-size:11px;color:#111827;">—</td></tr></table>]]></description><LineString><coordinates>-46.5724700,-23.5073500,0 -46.5725500,-23.5070500,0 -46.5725400,-23.5068300,0 -46.5725000,-23.5066800,0 -46.5722700,-23.5063100,0 -46.5721600,-23.5061900,0 -46.5720200,-23.5060900,0 -46.5717100,-23.5059600,0 -46.5713700,-23.5059400,0 -46.5712000,-23.5059700,0 -46.5709000,-23.5061100,0 -46.5707700,-23.5062100,0 -46.5705900,-23.5064300,0 -46.5703500,-23.5069000,0 -46.5702400,-23.5071600,0 -46.5700100,-23.5077800,0 -46.5699500,-23.5081100,0 -46.5700200,-23.5106100,0 -46.5701500,-23.5139700,0 -46.5702300,-23.5174600,0 -46.5703700,-23.5209900,0 -46.5704000,-23.5212000,0 -46.5704100,-23.5228100,0 -46.5704600,-23.5233300,0 -46.5705000,-23.5257700,0 -46.5706200,-23.5260600,0 -46.5708500,-23.5263000,0 -46.5709900,-23.5263900,0 -46.5711400,-23.5264500,0 -46.5713100,-23.5264900,0 -46.5714800,-23.5265100,0 -46.5715800,-23.5265000,0 -46.5717500,-23.5265300,0 -46.5719200,-23.5265300,0 -46.5722500,-23.5264500,0 -46.5724000,-23.5263700,0 -46.5725300,-23.5262700,0 -46.5726400,-23.5261500,0 -46.5727200,-23.5260100,0 -46.5727800,-23.5258600,0 -46.5728200,-23.5256300,0 -46.5727600,-23.5244300,0 -46.5727400,-23.5227300,0 -46.5725800,-23.5205800,0 -46.5725200,-23.5193700,0 -46.5725500,-23.5189700,0 -46.5724800,-23.5174300,0 -46.5724900,-23.5155000,0 -46.5724000,-23.5145900,0 -46.5723500,-23.5143100,0 -46.5723100,-23.5126500,0 -46.5721400,-23.5082300,0 -46.5721800,-23.5079900,0 -46.5724700,-23.5073500,0</coordinates></LineString></Placemark>
<Style id="s-CA-3">
<LineStyle><color>ff00d7ff</color><width>3.0</width></LineStyle>
<PolyStyle><color>ff00d7ff</color></PolyStyle>
<IconStyle><color>ff00d7ff</color><scale>0.55</scale>
<Icon><href>http://maps.google.com/mapfiles/kml/shapes/placemark_circle.png</href></Icon>
</IconStyle>
<LabelStyle><scale>0.65</scale></LabelStyle>
</Style><Placemark><name>Av Cruzeiro do Sul</name><styleUrl>#s-CA-3</styleUrl><description><![CDATA[<table style="border-collapse:collapse;width:100%;font-family:'Helvetica Neue',Helvetica,Arial,sans-serif;font-size:11px;border:1px solid #e5e7eb;border-radius:8px;overflow:hidden;"><tr><th colspan="2" style="padding:5px 8px;background:#1f6feb;color:#fff;text-align:left;font-size:12px;font-weight:600;">Av Cruzeiro do Sul</th></tr><tr><th style="padding:3px 5px;text-align:left;background:#f3f4f6;border-bottom:1px solid #d1d5db;width:30%;font-size:11px;font-weight:600;color:#1f2937;">Serviço</th><td style="padding:3px 5px;border-bottom:1px solid #e5e7eb;font-size:11px;color:#111827;">Asseio (CA)</td></tr><tr><th style="padding:3px 5px;text-align:left;background:#f3f4f6;border-bottom:1px solid #d1d5db;width:30%;font-size:11px;font-weight:600;color:#1f2937;">Setor</th><td style="padding:3px 5px;border-bottom:1px solid #e5e7eb;font-size:11px;color:#111827;">ST10303CA0001</td></tr><tr><th style="padding:3px 5px;text-align:left;background:#f3f4f6;border-bottom:1px solid #d1d5db;width:30%;font-size:11px;font-weight:600;color:#1f2937;">Tipo de Serviço</th><td style="padding:3px 5px;border-bottom:1px solid #e5e7eb;font-size:11px;color:#111827;">Asseio (CA)</td></tr><tr><th style="padding:3px 5px;text-align:left;background:#f3f4f6;border-bottom:1px solid #d1d5db;width:30%;font-size:11px;font-weight:600;color:#1f2937;">Nome</th><td style="padding:3px 5px;border-bottom:1px solid #e5e7eb;font-size:11px;color:#111827;">Av Cruzeiro do Sul</td></tr><tr><th style="padding:3px 5px;text-align:left;background:#f3f4f6;border-bottom:1px solid #d1d5db;width:30%;font-size:11px;font-weight:600;color:#1f2937;">Logradouro</th><td style="padding:3px 5px;border-bottom:1px solid #e5e7eb;font-size:11px;color:#111827;">Av Cruzeiro do Sul</td></tr><tr><th style="padding:3px 5px;text-align:left;background:#f3f4f6;border-bottom:1px solid #d1d5db;width:30%;font-size:11px;font-weight:600;color:#1f2937;">Subprefeitura</th><td style="padding:3px 5px;border-bottom:1px solid #e5e7eb;font-size:11px;color:#111827;">Santana / Tucuruvi</td></tr><tr><th style="padding:3px 5px;text-align:left;background:#f3f4f6;border-bottom:1px solid #d1d5db;width:30%;font-size:11px;font-weight:600;color:#1f2937;">Turno</th><td style="padding:3px 5px;border-bottom:1px solid #e5e7eb;font-size:11px;color:#111827;">Diurno</td></tr><tr><th style="padding:3px 5px;text-align:left;background:#f3f4f6;border-bottom:1px solid #d1d5db;width:30%;font-size:11px;font-weight:600;color:#1f2937;">Frequência</th><td style="padding:3px 5px;border-bottom:1px solid #e5e7eb;font-size:11px;color:#111827;">Bissemanal de Terça/Sexta</td></tr><tr><th style="padding:3px 5px;text-align:left;background:#f3f4f6;border-bottom:1px solid #d1d5db;width:30%;font-size:11px;font-weight:600;color:#1f2937;">Cronograma</th><td style="padding:3px 5px;border-bottom:1px solid #e5e7eb;font-size:11px;color:#111827;">—</td></tr></table>]]></description><LineString><coordinates>-46.6240400,-23.5151100,0 -46.6241100,-23.5171300,0 -46.6241300,-23.5172800,0 -46.6242500,-23.5175700,0 -46.6243600,-23.5177000,0 -46.6246200,-23.5178900,0 -46.6249500,-23.5179900,0 -46.6251200,-23.5180000,0 -46.6252900,-23.5179800,0 -46.6256000,-23.5178600,0 -46.6257400,-23.5177700,0 -46.6258600,-23.5176500,0 -46.6259500,-23.5175200,0 -46.6260200,-23.5173800,0 -46.6260700,-23.5171200,0 -46.6262200,-23.5168400,0 -46.6262600,-23.5165900,0 -46.6261500,-23.5129600,0 -46.6261300,-23.5115700,0 -46.6261100,-23.5114000,0 -46.6260000,-23.5075700,0 -46.6260000,-23.5068200,0 -46.6259100,-23.5041300,0 -46.6259100,-23.5031500,0 -46.6258500,-23.5008700,0 -46.6258000,-23.5001100,0 -46.6258100,-23.4998400,0 -46.6257800,-23.4990200,0 -46.6257600,-23.4988700,0 -46.6257100,-23.4987200,0 -46.6256400,-23.4985800,0 -46.6255300,-23.4984500,0 -46.6254100,-23.4983500,0 -46.6252600,-23.4982600,0 -46.6251100,-23.4982000,0 -46.6249400,-23.4981600,0 -46.6247700,-23.4981500,0 -46.6242500,-23.4981900,0 -46.6239400,-23.4983100,0 -46.6236900,-23.4985300,0 -46.6236000,-23.4986600,0 -46.6235000,-23.4989600,0 -46.6235800,-23.5020800,0 -46.6236600,-23.5031800,0 -46.6237600,-23.5063600,0 -46.6238400,-23.5082200,0 -46.6239400,-23.5115900,0 -46.6239400,-23.5124700,0 -46.6240400,-23.5151100,0</coordinates></LineString></Placemark>
</Document></kml>